{
"type": "FeatureCollection",
"name": "villages_west_kameng",
"crs": { "type": "name", "properties": { "name": "urn:ogc:def:crs:OGC:1.3:CRS84" } },
"features": [
{ "type": "Feature", "properties": { "osm_id": 245755376, "name": "Bhalukpong", "place_type": "town", "inside_district": true }, "geometry": { "type": "Point", "coordinates": [ 92.6358068, 27.0137235 ] } },
{ "type": "Feature", "properties": { "osm_id": 342097944, "name": "Senge", "place_type": "town", "inside_district": true }, "geometry": { "type": "Point", "coordinates": [ 92.11212, 27.45621 ] } },
{ "type": "Feature", "properties": { "osm_id": 342098042, "name": "Jameri", "place_type": "hamlet", "inside_district": true }, "geometry": { "type": "Point", "coordinates": [ 92.57218, 27.19391 ] } },
{ "type": "Feature", "properties": { "osm_id": 342098096, "name": "Rahung", "place_type": "hamlet", "inside_district": true }, "geometry": { "type": "Point", "coordinates": [ 92.37305, 27.31613 ] } },
{ "type": "Feature", "properties": { "osm_id": 342098150, "name": "Dirang", "place_type": "town", "inside_district": true }, "geometry": { "type": "Point", "coordinates": [ 92.24121, 27.36008 ] } },
{ "type": "Feature", "properties": { "osm_id": 342098160, "name": "Rama Camp", "place_type": "village", "inside_district": true }, "geometry": { "type": "Point", "coordinates": [ 92.20276, 27.39166 ] } },
{ "type": "Feature", "properties": { "osm_id": 342098177, "name": "Yukmadung", "place_type": "village", "inside_district": true }, "geometry": { "type": "Point", "coordinates": [ 92.1244746, 27.4213253 ] } },
{ "type": "Feature", "properties": { "osm_id": 342099652, "name": "New Kaspi", "place_type": "hamlet", "inside_district": true }, "geometry": { "type": "Point", "coordinates": [ 92.56119, 27.20627 ] } },
{ "type": "Feature", "properties": { "osm_id": 342099715, "name": "Pinjoli", "place_type": "village", "inside_district": true }, "geometry": { "type": "Point", "coordinates": [ 92.59003, 27.09229 ] } },
{ "type": "Feature", "properties": { "osm_id": 1185177134, "name": "Bana", "place_type": "village", "inside_district": true }, "geometry": { "type": "Point", "coordinates": [ 92.853767, 27.2849959 ] } },
{ "type": "Feature", "properties": { "osm_id": 1185177423, "name": "Palizi", "place_type": "village", "inside_district": true }, "geometry": { "type": "Point", "coordinates": [ 92.7771732, 27.2934767 ] } },
{ "type": "Feature", "properties": { "osm_id": 1185179983, "name": "Dijungania", "place_type": "village", "inside_district": true }, "geometry": { "type": "Point", "coordinates": [ 92.741271, 27.3427506 ] } },
{ "type": "Feature", "properties": { "osm_id": 1185182418, "name": "Tuluhi", "place_type": "village", "inside_district": true }, "geometry": { "type": "Point", "coordinates": [ 92.7679122, 27.3150413 ] } },
{ "type": "Feature", "properties": { "osm_id": 1698494190, "name": "Rupa", "place_type": "town", "inside_district": true }, "geometry": { "type": "Point", "coordinates": [ 92.3998289, 27.2038979 ] } },
{ "type": "Feature", "properties": { "osm_id": 1698494211, "name": "Tenga", "place_type": "village", "inside_district": true }, "geometry": { "type": "Point", "coordinates": [ 92.469486, 27.2069334 ] } },
{ "type": "Feature", "properties": { "osm_id": 2164024695, "name": "Amatulla", "place_type": "village", "inside_district": true }, "geometry": { "type": "Point", "coordinates": [ 92.1272069, 26.9164238 ] } },
{ "type": "Feature", "properties": { "osm_id": 3017246155, "name": "Ramalingram", "place_type": "village", "inside_district": true }, "geometry": { "type": "Point", "coordinates": [ 92.4618207, 27.1885904 ] } },
{ "type": "Feature", "properties": { "osm_id": 3018801081, "name": "Mandala", "place_type": "village", "inside_district": true }, "geometry": { "type": "Point", "coordinates": [ 92.2572461, 27.2739863 ] } },
{ "type": "Feature", "properties": { "osm_id": 4621727646, "name": "", "place_type": "village", "inside_district": true }, "geometry": { "type": "Point", "coordinates": [ 93.1979216, 27.7799458 ] } },
{ "type": "Feature", "properties": { "osm_id": 4621727699, "name": "Yangfo", "place_type": "village", "inside_district": true }, "geometry": { "type": "Point", "coordinates": [ 93.144567, 27.7351995 ] } },
{ "type": "Feature", "properties": { "osm_id": 4694758460, "name": "Waii", "place_type": "village", "inside_district": true }, "geometry": { "type": "Point", "coordinates": [ 92.9464187, 27.5965694 ] } },
{ "type": "Feature", "properties": { "osm_id": 4694758616, "name": "Tabey", "place_type": "hamlet", "inside_district": true }, "geometry": { "type": "Point", "coordinates": [ 92.9122259, 27.6122188 ] } },
{ "type": "Feature", "properties": { "osm_id": 4694767286, "name": "Tungi", "place_type": "hamlet", "inside_district": true }, "geometry": { "type": "Point", "coordinates": [ 93.0461713, 27.674452 ] } },
{ "type": "Feature", "properties": { "osm_id": 4694774373, "name": "Venia", "place_type": "hamlet", "inside_district": true }, "geometry": { "type": "Point", "coordinates": [ 93.0020799, 27.7340861 ] } },
{ "type": "Feature", "properties": { "osm_id": 4694774512, "name": "Bengde", "place_type": "hamlet", "inside_district": true }, "geometry": { "type": "Point", "coordinates": [ 93.0379357, 27.6619285 ] } },
{ "type": "Feature", "properties": { "osm_id": 4694774539, "name": "Lamniya", "place_type": "hamlet", "inside_district": true }, "geometry": { "type": "Point", "coordinates": [ 93.0130663, 27.7095829 ] } },
{ "type": "Feature", "properties": { "osm_id": 4694774649, "name": "Sawa", "place_type": "village", "inside_district": true }, "geometry": { "type": "Point", "coordinates": [ 93.0522114, 27.6833826 ] } },
{ "type": "Feature", "properties": { "osm_id": 4694774662, "name": "Jokhio", "place_type": "hamlet", "inside_district": true }, "geometry": { "type": "Point", "coordinates": [ 93.0282798, 27.6531478 ] } },
{ "type": "Feature", "properties": { "osm_id": 4694774739, "name": "Nampe", "place_type": "hamlet", "inside_district": true }, "geometry": { "type": "Point", "coordinates": [ 93.018259, 27.6900524 ] } },
{ "type": "Feature", "properties": { "osm_id": 5021583941, "name": "Aloo Baari", "place_type": "hamlet", "inside_district": true }, "geometry": { "type": "Point", "coordinates": [ 92.4648656, 27.161256 ] } },
{ "type": "Feature", "properties": { "osm_id": 5021583942, "name": "Brokpublang", "place_type": "hamlet", "inside_district": true }, "geometry": { "type": "Point", "coordinates": [ 92.4120383, 27.1845688 ] } },
{ "type": "Feature", "properties": { "osm_id": 5021583943, "name": "Chitre basti", "place_type": "village", "inside_district": true }, "geometry": { "type": "Point", "coordinates": [ 92.4887793, 27.1973857 ] } },
{ "type": "Feature", "properties": { "osm_id": 5021583944, "name": "Khellong", "place_type": "hamlet", "inside_district": true }, "geometry": { "type": "Point", "coordinates": [ 92.4145185, 27.0133852 ] } },
{ "type": "Feature", "properties": { "osm_id": 5021583946, "name": "Singchung", "place_type": "village", "inside_district": true }, "geometry": { "type": "Point", "coordinates": [ 92.4772724, 27.2018151 ] } },
{ "type": "Feature", "properties": { "osm_id": 5021583947, "name": "Thungri", "place_type": "village", "inside_district": true }, "geometry": { "type": "Point", "coordinates": [ 92.3940301, 27.1672153 ] } },
{ "type": "Feature", "properties": { "osm_id": 5170680159, "name": "Kalaktang", "place_type": "village", "inside_district": true }, "geometry": { "type": "Point", "coordinates": [ 92.1163979, 27.1061147 ] } },
{ "type": "Feature", "properties": { "osm_id": 5314369747, "name": "Sangti", "place_type": "village", "inside_district": true }, "geometry": { "type": "Point", "coordinates": [ 92.2767673, 27.403574 ] } },
{ "type": "Feature", "properties": { "osm_id": 5411236900, "name": "Drakshi", "place_type": "hamlet", "inside_district": true }, "geometry": { "type": "Point", "coordinates": [ 92.7835089, 27.5456202 ] } },
{ "type": "Feature", "properties": { "osm_id": 5411237040, "name": "", "place_type": "hamlet", "inside_district": true }, "geometry": { "type": "Point", "coordinates": [ 92.7692632, 27.5119764 ] } },
{ "type": "Feature", "properties": { "osm_id": 5411237106, "name": "", "place_type": "hamlet", "inside_district": true }, "geometry": { "type": "Point", "coordinates": [ 92.7452284, 27.51548 ] } },
{ "type": "Feature", "properties": { "osm_id": 5411237167, "name": "", "place_type": "hamlet", "inside_district": true }, "geometry": { "type": "Point", "coordinates": [ 92.7905356, 27.5340288 ] } },
{ "type": "Feature", "properties": { "osm_id": 5411250935, "name": "Pipiang", "place_type": "hamlet", "inside_district": true }, "geometry": { "type": "Point", "coordinates": [ 92.7089435, 27.6637986 ] } },
{ "type": "Feature", "properties": { "osm_id": 5411251088, "name": "Tawa", "place_type": "hamlet", "inside_district": true }, "geometry": { "type": "Point", "coordinates": [ 92.7459537, 27.6262958 ] } },
{ "type": "Feature", "properties": { "osm_id": 5411278256, "name": "Nissangjang", "place_type": "hamlet", "inside_district": true }, "geometry": { "type": "Point", "coordinates": [ 92.7136009, 27.6510457 ] } },
{ "type": "Feature", "properties": { "osm_id": 5411293684, "name": "", "place_type": "hamlet", "inside_district": true }, "geometry": { "type": "Point", "coordinates": [ 93.1607884, 27.7672117 ] } },
{ "type": "Feature", "properties": { "osm_id": 5411293689, "name": "Tarawa Yangfo", "place_type": "hamlet", "inside_district": true }, "geometry": { "type": "Point", "coordinates": [ 93.1157187, 27.7267073 ] } },
{ "type": "Feature", "properties": { "osm_id": 5411293691, "name": "", "place_type": "hamlet", "inside_district": true }, "geometry": { "type": "Point", "coordinates": [ 93.1740117, 27.7896138 ] } },
{ "type": "Feature", "properties": { "osm_id": 5411293700, "name": "Jayang Bagang", "place_type": "village", "inside_district": true }, "geometry": { "type": "Point", "coordinates": [ 93.1791026, 27.7547367 ] } },
{ "type": "Feature", "properties": { "osm_id": 5411308780, "name": "Chelong", "place_type": "hamlet", "inside_district": true }, "geometry": { "type": "Point", "coordinates": [ 92.5075643, 27.4388355 ] } },
{ "type": "Feature", "properties": { "osm_id": 5411308786, "name": "Wathow", "place_type": "hamlet", "inside_district": true }, "geometry": { "type": "Point", "coordinates": [ 92.5429255, 27.485598 ] } },
{ "type": "Feature", "properties": { "osm_id": 5432491138, "name": "Thungri", "place_type": "hamlet", "inside_district": true }, "geometry": { "type": "Point", "coordinates": [ 92.3800565, 27.4470222 ] } },
{ "type": "Feature", "properties": { "osm_id": 5432491191, "name": "Lagam", "place_type": "village", "inside_district": true }, "geometry": { "type": "Point", "coordinates": [ 92.38069, 27.4241023 ] } },
{ "type": "Feature", "properties": { "osm_id": 5432491195, "name": "普东", "place_type": "village", "inside_district": true }, "geometry": { "type": "Point", "coordinates": [ 92.3182053, 27.4271211 ] } },
{ "type": "Feature", "properties": { "osm_id": 5432491210, "name": "", "place_type": "village", "inside_district": true }, "geometry": { "type": "Point", "coordinates": [ 92.2982818, 27.4164264 ] } },
{ "type": "Feature", "properties": { "osm_id": 5432491288, "name": "", "place_type": "hamlet", "inside_district": true }, "geometry": { "type": "Point", "coordinates": [ 92.3653467, 27.4132349 ] } },
{ "type": "Feature", "properties": { "osm_id": 7089595148, "name": "Shergaon", "place_type": "village", "inside_district": true }, "geometry": { "type": "Point", "coordinates": [ 92.2608125, 27.1295962 ] } },
{ "type": "Feature", "properties": { "osm_id": 7089595149, "name": "Nafra", "place_type": "town", "inside_district": true }, "geometry": { "type": "Point", "coordinates": [ 92.5450945, 27.3716595 ] } },
{ "type": "Feature", "properties": { "osm_id": 7164628776, "name": "Thembang", "place_type": "town", "inside_district": true }, "geometry": { "type": "Point", "coordinates": [ 92.3872518, 27.3419989 ] } },
{ "type": "Feature", "properties": { "osm_id": 7164628778, "name": "Khenawa", "place_type": "village", "inside_district": true }, "geometry": { "type": "Point", "coordinates": [ 93.016777, 27.6180869 ] } },
{ "type": "Feature", "properties": { "osm_id": 7630140630, "name": "Jomoh", "place_type": "hamlet", "inside_district": true }, "geometry": { "type": "Point", "coordinates": [ 92.9985809, 27.6573981 ] } },
{ "type": "Feature", "properties": { "osm_id": 7630140643, "name": "Krema Pao", "place_type": "hamlet", "inside_district": true }, "geometry": { "type": "Point", "coordinates": [ 93.0508089, 27.6579303 ] } },
{ "type": "Feature", "properties": { "osm_id": 7630140661, "name": "Pangia", "place_type": "hamlet", "inside_district": true }, "geometry": { "type": "Point", "coordinates": [ 93.0158758, 27.633391 ] } },
{ "type": "Feature", "properties": { "osm_id": 7630140676, "name": "Pordung", "place_type": "hamlet", "inside_district": true }, "geometry": { "type": "Point", "coordinates": [ 93.0184293, 27.6065455 ] } },
{ "type": "Feature", "properties": { "osm_id": 8918212448, "name": "Luguthang", "place_type": "village", "inside_district": true }, "geometry": { "type": "Point", "coordinates": [ 92.1857466, 27.5948234 ] } },
{ "type": "Feature", "properties": { "osm_id": 8939518935, "name": "", "place_type": "village", "inside_district": true }, "geometry": { "type": "Point", "coordinates": [ 92.0619197, 27.1386889 ] } },
{ "type": "Feature", "properties": { "osm_id": 9988831580, "name": "Veo", "place_type": "hamlet", "inside_district": true }, "geometry": { "type": "Point", "coordinates": [ 93.017386, 27.7219814 ] } },
{ "type": "Feature", "properties": { "osm_id": 9988831614, "name": "Langchu Sollung", "place_type": "hamlet", "inside_district": true }, "geometry": { "type": "Point", "coordinates": [ 92.9355132, 27.7569534 ] } },
{ "type": "Feature", "properties": { "osm_id": 9988864841, "name": "Waing", "place_type": "hamlet", "inside_district": true }, "geometry": { "type": "Point", "coordinates": [ 92.9303658, 27.7737215 ] } },
{ "type": "Feature", "properties": { "osm_id": 9988864842, "name": "Warriam Sullung", "place_type": "hamlet", "inside_district": true }, "geometry": { "type": "Point", "coordinates": [ 92.9802579, 27.7279436 ] } },
{ "type": "Feature", "properties": { "osm_id": 9988864843, "name": "Weigung Sullung", "place_type": "hamlet", "inside_district": true }, "geometry": { "type": "Point", "coordinates": [ 92.9780365, 27.7282868 ] } },
{ "type": "Feature", "properties": { "osm_id": 9988864844, "name": "Saria Takhong", "place_type": "hamlet", "inside_district": true }, "geometry": { "type": "Point", "coordinates": [ 92.9324466, 27.7461293 ] } },
{ "type": "Feature", "properties": { "osm_id": 9988864845, "name": "Dao", "place_type": "hamlet", "inside_district": true }, "geometry": { "type": "Point", "coordinates": [ 92.9383609, 27.7832832 ] } },
{ "type": "Feature", "properties": { "osm_id": 9988864846, "name": "Nampe Bagang", "place_type": "hamlet", "inside_district": true }, "geometry": { "type": "Point", "coordinates": [ 93.0313033, 27.7140627 ] } },
{ "type": "Feature", "properties": { "osm_id": 9988864847, "name": "Parte", "place_type": "hamlet", "inside_district": true }, "geometry": { "type": "Point", "coordinates": [ 93.0024418, 27.689839 ] } },
{ "type": "Feature", "properties": { "osm_id": 9988864848, "name": "Lamrah", "place_type": "hamlet", "inside_district": true }, "geometry": { "type": "Point", "coordinates": [ 93.0373888, 27.6967225 ] } },
{ "type": "Feature", "properties": { "osm_id": 9988864849, "name": "Namta Yangfo", "place_type": "hamlet", "inside_district": true }, "geometry": { "type": "Point", "coordinates": [ 93.0532147, 27.7018661 ] } },
{ "type": "Feature", "properties": { "osm_id": 9988864872, "name": "Bodo", "place_type": "village", "inside_district": true }, "geometry": { "type": "Point", "coordinates": [ 93.0406964, 27.680324 ] } },
{ "type": "Feature", "properties": { "osm_id": 9988864926, "name": "Raro Sullung", "place_type": "hamlet", "inside_district": true }, "geometry": { "type": "Point", "coordinates": [ 93.0717372, 27.6890058 ] } },
{ "type": "Feature", "properties": { "osm_id": 9988864927, "name": "Wagyang", "place_type": "hamlet", "inside_district": true }, "geometry": { "type": "Point", "coordinates": [ 93.0008935, 27.6713461 ] } },
{ "type": "Feature", "properties": { "osm_id": 10002384803, "name": "Yakli", "place_type": "hamlet", "inside_district": true }, "geometry": { "type": "Point", "coordinates": [ 93.0211222, 27.7643991 ] } },
{ "type": "Feature", "properties": { "osm_id": 10002384804, "name": "Mechi", "place_type": "hamlet", "inside_district": true }, "geometry": { "type": "Point", "coordinates": [ 93.0208212, 27.7740086 ] } },
{ "type": "Feature", "properties": { "osm_id": 10002384805, "name": "Mechar", "place_type": "hamlet", "inside_district": true }, "geometry": { "type": "Point", "coordinates": [ 93.0216134, 27.7792152 ] } },
{ "type": "Feature", "properties": { "osm_id": 10002384806, "name": "Diya Sullung", "place_type": "hamlet", "inside_district": true }, "geometry": { "type": "Point", "coordinates": [ 93.0124888, 27.7760452 ] } },
{ "type": "Feature", "properties": { "osm_id": 10002384807, "name": "Dara Yangfo", "place_type": "hamlet", "inside_district": true }, "geometry": { "type": "Point", "coordinates": [ 93.0487159, 27.732817 ] } },
{ "type": "Feature", "properties": { "osm_id": 10002384808, "name": "Loto Yangfo", "place_type": "hamlet", "inside_district": true }, "geometry": { "type": "Point", "coordinates": [ 93.059293, 27.7296573 ] } },
{ "type": "Feature", "properties": { "osm_id": 10002384809, "name": "Byale", "place_type": "village", "inside_district": true }, "geometry": { "type": "Point", "coordinates": [ 93.0675738, 27.7356495 ] } },
{ "type": "Feature", "properties": { "osm_id": 10002389535, "name": "Kapa", "place_type": "hamlet", "inside_district": true }, "geometry": { "type": "Point", "coordinates": [ 92.9735655, 27.6655139 ] } },
{ "type": "Feature", "properties": { "osm_id": 10002389536, "name": "Chaling", "place_type": "hamlet", "inside_district": true }, "geometry": { "type": "Point", "coordinates": [ 92.9723051, 27.66365 ] } },
{ "type": "Feature", "properties": { "osm_id": 10002389537, "name": "Wallong", "place_type": "hamlet", "inside_district": true }, "geometry": { "type": "Point", "coordinates": [ 92.9685879, 27.6530641 ] } },
{ "type": "Feature", "properties": { "osm_id": 10002389573, "name": "Yacho", "place_type": "hamlet", "inside_district": true }, "geometry": { "type": "Point", "coordinates": [ 92.9601837, 27.6396662 ] } },
{ "type": "Feature", "properties": { "osm_id": 10002389577, "name": "Kamke", "place_type": "hamlet", "inside_district": true }, "geometry": { "type": "Point", "coordinates": [ 93.089903, 27.6740303 ] } },
{ "type": "Feature", "properties": { "osm_id": 10002389578, "name": "Tamsang Yangfo", "place_type": "hamlet", "inside_district": true }, "geometry": { "type": "Point", "coordinates": [ 93.0917894, 27.6760974 ] } },
{ "type": "Feature", "properties": { "osm_id": 10002389584, "name": "Killo", "place_type": "hamlet", "inside_district": true }, "geometry": { "type": "Point", "coordinates": [ 93.1001025, 27.685517 ] } },
{ "type": "Feature", "properties": { "osm_id": 10002389585, "name": "Rebe", "place_type": "village", "inside_district": true }, "geometry": { "type": "Point", "coordinates": [ 93.1212163, 27.6978845 ] } },
{ "type": "Feature", "properties": { "osm_id": 10002389612, "name": "Tagampu Sollung", "place_type": "hamlet", "inside_district": true }, "geometry": { "type": "Point", "coordinates": [ 93.1143115, 27.7343114 ] } },
{ "type": "Feature", "properties": { "osm_id": 10002389613, "name": "Keyang", "place_type": "hamlet", "inside_district": true }, "geometry": { "type": "Point", "coordinates": [ 93.1297477, 27.7303152 ] } },
{ "type": "Feature", "properties": { "osm_id": 10002389614, "name": "Hara Yangfo", "place_type": "hamlet", "inside_district": true }, "geometry": { "type": "Point", "coordinates": [ 93.1327809, 27.751648 ] } },
{ "type": "Feature", "properties": { "osm_id": 10002389615, "name": "Jattom Sollung", "place_type": "hamlet", "inside_district": true }, "geometry": { "type": "Point", "coordinates": [ 93.1233315, 27.7610472 ] } },
{ "type": "Feature", "properties": { "osm_id": 10002389647, "name": "Tassar Sollung", "place_type": "hamlet", "inside_district": true }, "geometry": { "type": "Point", "coordinates": [ 93.1863651, 27.7664591 ] } },
{ "type": "Feature", "properties": { "osm_id": 10002389648, "name": "Kesse Bagang", "place_type": "hamlet", "inside_district": true }, "geometry": { "type": "Point", "coordinates": [ 93.2034502, 27.7809294 ] } },
{ "type": "Feature", "properties": { "osm_id": 10002389668, "name": "Paje Tassar", "place_type": "hamlet", "inside_district": true }, "geometry": { "type": "Point", "coordinates": [ 93.2081035, 27.788208 ] } },
{ "type": "Feature", "properties": { "osm_id": 10220934189, "name": "Tenzingang", "place_type": "village", "inside_district": true }, "geometry": { "type": "Point", "coordinates": [ 92.1716184, 27.0969299 ] } },
{ "type": "Feature", "properties": { "osm_id": 10285947117, "name": "Mathow", "place_type": "hamlet", "inside_district": true }, "geometry": { "type": "Point", "coordinates": [ 92.466074, 27.4356083 ] } },
{ "type": "Feature", "properties": { "osm_id": 10779098071, "name": "Pota", "place_type": "hamlet", "inside_district": true }, "geometry": { "type": "Point", "coordinates": [ 92.3886385, 27.619565 ] } },
{ "type": "Feature", "properties": { "osm_id": 10780212843, "name": "Hawa Golai", "place_type": "hamlet", "inside_district": true }, "geometry": { "type": "Point", "coordinates": [ 92.4270914, 27.2711003 ] } },
{ "type": "Feature", "properties": { "osm_id": 10784867226, "name": "Dirang Dzong", "place_type": "village", "inside_district": true }, "geometry": { "type": "Point", "coordinates": [ 92.2716661, 27.343249 ] } },
{ "type": "Feature", "properties": { "osm_id": 10784969482, "name": "Bushuthang", "place_type": "hamlet", "inside_district": true }, "geometry": { "type": "Point", "coordinates": [ 92.2449563, 27.3541165 ] } },
{ "type": "Feature", "properties": { "osm_id": 10824019012, "name": "楚木巴", "place_type": "hamlet", "inside_district": true }, "geometry": { "type": "Point", "coordinates": [ 92.2710437, 27.6549106 ] } },
{ "type": "Feature", "properties": { "osm_id": 10825595692, "name": "Rap", "place_type": "hamlet", "inside_district": true }, "geometry": { "type": "Point", "coordinates": [ 92.3592422, 27.662464 ] } },
{ "type": "Feature", "properties": { "osm_id": 10839474047, "name": "Kimi", "place_type": "village", "inside_district": true }, "geometry": { "type": "Point", "coordinates": [ 92.6750625, 27.1662274 ] } },
{ "type": "Feature", "properties": { "osm_id": 10862477126, "name": "", "place_type": "village", "inside_district": true }, "geometry": { "type": "Point", "coordinates": [ 92.8793708, 27.2805248 ] } },
{ "type": "Feature", "properties": { "osm_id": 10862477127, "name": "", "place_type": "village", "inside_district": true }, "geometry": { "type": "Point", "coordinates": [ 92.8308371, 27.2862985 ] } },
{ "type": "Feature", "properties": { "osm_id": 10862477128, "name": "", "place_type": "village", "inside_district": true }, "geometry": { "type": "Point", "coordinates": [ 92.6657104, 27.2119658 ] } },
{ "type": "Feature", "properties": { "osm_id": 10862477137, "name": "", "place_type": "village", "inside_district": true }, "geometry": { "type": "Point", "coordinates": [ 92.5751271, 27.1991314 ] } },
{ "type": "Feature", "properties": { "osm_id": 10862477138, "name": "", "place_type": "village", "inside_district": true }, "geometry": { "type": "Point", "coordinates": [ 92.5540902, 27.2095269 ] } },
{ "type": "Feature", "properties": { "osm_id": 10862477139, "name": "", "place_type": "village", "inside_district": true }, "geometry": { "type": "Point", "coordinates": [ 92.5333579, 27.2026978 ] } },
{ "type": "Feature", "properties": { "osm_id": 10862477140, "name": "迪当", "place_type": "village", "inside_district": true }, "geometry": { "type": "Point", "coordinates": [ 92.3396825, 27.2174452 ] } },
{ "type": "Feature", "properties": { "osm_id": 10862624571, "name": "", "place_type": "village", "inside_district": true }, "geometry": { "type": "Point", "coordinates": [ 93.0877855, 27.6715608 ] } },
{ "type": "Feature", "properties": { "osm_id": 10862624904, "name": "", "place_type": "village", "inside_district": true }, "geometry": { "type": "Point", "coordinates": [ 93.117592, 27.6957339 ] } },
{ "type": "Feature", "properties": { "osm_id": 10862634935, "name": "", "place_type": "village", "inside_district": true }, "geometry": { "type": "Point", "coordinates": [ 93.1362099, 27.710143 ] } },
{ "type": "Feature", "properties": { "osm_id": 10862634987, "name": "", "place_type": "village", "inside_district": true }, "geometry": { "type": "Point", "coordinates": [ 93.1383278, 27.7192737 ] } },
{ "type": "Feature", "properties": { "osm_id": 10864153555, "name": "", "place_type": "village", "inside_district": true }, "geometry": { "type": "Point", "coordinates": [ 92.8396087, 27.2936776 ] } },
{ "type": "Feature", "properties": { "osm_id": 10864153582, "name": "", "place_type": "village", "inside_district": true }, "geometry": { "type": "Point", "coordinates": [ 92.7610281, 27.3382558 ] } },
{ "type": "Feature", "properties": { "osm_id": 10864153899, "name": "", "place_type": "village", "inside_district": true }, "geometry": { "type": "Point", "coordinates": [ 92.7850277, 27.3613196 ] } },
{ "type": "Feature", "properties": { "osm_id": 10864154050, "name": "", "place_type": "village", "inside_district": true }, "geometry": { "type": "Point", "coordinates": [ 92.8021986, 27.3566465 ] } },
{ "type": "Feature", "properties": { "osm_id": 10864211091, "name": "", "place_type": "village", "inside_district": true }, "geometry": { "type": "Point", "coordinates": [ 92.7990118, 27.4778166 ] } },
{ "type": "Feature", "properties": { "osm_id": 10864211365, "name": "", "place_type": "village", "inside_district": true }, "geometry": { "type": "Point", "coordinates": [ 92.8023852, 27.5072474 ] } },
{ "type": "Feature", "properties": { "osm_id": 10864211422, "name": "Rapung", "place_type": "village", "inside_district": true }, "geometry": { "type": "Point", "coordinates": [ 92.8051926, 27.5088864 ] } },
{ "type": "Feature", "properties": { "osm_id": 10864211565, "name": "", "place_type": "village", "inside_district": true }, "geometry": { "type": "Point", "coordinates": [ 92.7822404, 27.5068829 ] } },
{ "type": "Feature", "properties": { "osm_id": 10864211688, "name": "Khazalang", "place_type": "hamlet", "inside_district": true }, "geometry": { "type": "Point", "coordinates": [ 92.6300647, 27.3938405 ] } },
{ "type": "Feature", "properties": { "osm_id": 10864219605, "name": "Morshing", "place_type": "village", "inside_district": true }, "geometry": { "type": "Point", "coordinates": [ 92.206147, 27.1736109 ] } },
{ "type": "Feature", "properties": { "osm_id": 10864253574, "name": "", "place_type": "hamlet", "inside_district": true }, "geometry": { "type": "Point", "coordinates": [ 92.0738754, 27.3454632 ] } },
{ "type": "Feature", "properties": { "osm_id": 10864370343, "name": "莫库新", "place_type": "village", "inside_district": true }, "geometry": { "type": "Point", "coordinates": [ 92.3289656, 27.1868821 ] } },
{ "type": "Feature", "properties": { "osm_id": 10864370388, "name": "Jigaon", "place_type": "hamlet", "inside_district": true }, "geometry": { "type": "Point", "coordinates": [ 92.3223489, 27.170782 ] } },
{ "type": "Feature", "properties": { "osm_id": 10864519673, "name": "", "place_type": "hamlet", "inside_district": true }, "geometry": { "type": "Point", "coordinates": [ 92.1884265, 27.3911173 ] } },
{ "type": "Feature", "properties": { "osm_id": 10864519863, "name": "", "place_type": "hamlet", "inside_district": true }, "geometry": { "type": "Point", "coordinates": [ 92.2092331, 27.4081456 ] } },
{ "type": "Feature", "properties": { "osm_id": 10864519876, "name": "罗布泽", "place_type": "village", "inside_district": true }, "geometry": { "type": "Point", "coordinates": [ 92.2114548, 27.4182304 ] } },
{ "type": "Feature", "properties": { "osm_id": 10864519882, "name": "", "place_type": "hamlet", "inside_district": true }, "geometry": { "type": "Point", "coordinates": [ 92.206103, 27.4250623 ] } },
{ "type": "Feature", "properties": { "osm_id": 10864519889, "name": "Chug", "place_type": "village", "inside_district": true }, "geometry": { "type": "Point", "coordinates": [ 92.2060459, 27.4216222 ] } },
{ "type": "Feature", "properties": { "osm_id": 10864520087, "name": "", "place_type": "hamlet", "inside_district": true }, "geometry": { "type": "Point", "coordinates": [ 92.2070887, 27.429254 ] } },
{ "type": "Feature", "properties": { "osm_id": 10864520093, "name": "", "place_type": "hamlet", "inside_district": true }, "geometry": { "type": "Point", "coordinates": [ 92.206564, 27.438518 ] } },
{ "type": "Feature", "properties": { "osm_id": 10864520147, "name": "", "place_type": "hamlet", "inside_district": true }, "geometry": { "type": "Point", "coordinates": [ 92.2199768, 27.4284809 ] } },
{ "type": "Feature", "properties": { "osm_id": 10864520171, "name": "", "place_type": "hamlet", "inside_district": true }, "geometry": { "type": "Point", "coordinates": [ 92.1412322, 27.4198194 ] } },
{ "type": "Feature", "properties": { "osm_id": 10864520183, "name": "", "place_type": "hamlet", "inside_district": true }, "geometry": { "type": "Point", "coordinates": [ 92.131976, 27.4174851 ] } },
{ "type": "Feature", "properties": { "osm_id": 10864520200, "name": "", "place_type": "hamlet", "inside_district": true }, "geometry": { "type": "Point", "coordinates": [ 92.1225628, 27.4131332 ] } },
{ "type": "Feature", "properties": { "osm_id": 10864520205, "name": "", "place_type": "hamlet", "inside_district": true }, "geometry": { "type": "Point", "coordinates": [ 92.1167242, 27.4249056 ] } },
{ "type": "Feature", "properties": { "osm_id": 10864520256, "name": "", "place_type": "hamlet", "inside_district": true }, "geometry": { "type": "Point", "coordinates": [ 92.1235784, 27.4256792 ] } },
{ "type": "Feature", "properties": { "osm_id": 10864520263, "name": "", "place_type": "hamlet", "inside_district": true }, "geometry": { "type": "Point", "coordinates": [ 92.1129278, 27.4380957 ] } },
{ "type": "Feature", "properties": { "osm_id": 10866786869, "name": "Foot Hills", "place_type": "village", "inside_district": true }, "geometry": { "type": "Point", "coordinates": [ 92.4227682, 26.9636511 ] } },
{ "type": "Feature", "properties": { "osm_id": 10866787963, "name": "Samphung", "place_type": "hamlet", "inside_district": true }, "geometry": { "type": "Point", "coordinates": [ 92.1168896, 27.0885752 ] } },
{ "type": "Feature", "properties": { "osm_id": 10866787971, "name": "", "place_type": "hamlet", "inside_district": true }, "geometry": { "type": "Point", "coordinates": [ 92.1083223, 27.0853836 ] } },
{ "type": "Feature", "properties": { "osm_id": 10866787978, "name": "", "place_type": "hamlet", "inside_district": true }, "geometry": { "type": "Point", "coordinates": [ 92.1059016, 27.1007077 ] } },
{ "type": "Feature", "properties": { "osm_id": 10866788229, "name": "", "place_type": "hamlet", "inside_district": true }, "geometry": { "type": "Point", "coordinates": [ 92.1649558, 27.2381204 ] } },
{ "type": "Feature", "properties": { "osm_id": 10866990976, "name": "", "place_type": "village", "inside_district": true }, "geometry": { "type": "Point", "coordinates": [ 92.4218313, 27.2424931 ] } },
{ "type": "Feature", "properties": { "osm_id": 10866990977, "name": "", "place_type": "village", "inside_district": true }, "geometry": { "type": "Point", "coordinates": [ 92.4337274, 27.2470633 ] } },
{ "type": "Feature", "properties": { "osm_id": 10867022206, "name": "Salari", "place_type": "village", "inside_district": true }, "geometry": { "type": "Point", "coordinates": [ 92.4378105, 27.3285651 ] } },
{ "type": "Feature", "properties": { "osm_id": 10867022207, "name": "", "place_type": "village", "inside_district": true }, "geometry": { "type": "Point", "coordinates": [ 92.4551007, 27.3206595 ] } },
{ "type": "Feature", "properties": { "osm_id": 10867038682, "name": "", "place_type": "hamlet", "inside_district": true }, "geometry": { "type": "Point", "coordinates": [ 92.463961, 27.1868185 ] } },
{ "type": "Feature", "properties": { "osm_id": 10867116495, "name": "", "place_type": "village", "inside_district": true }, "geometry": { "type": "Point", "coordinates": [ 92.4089497, 27.2348385 ] } },
{ "type": "Feature", "properties": { "osm_id": 10870113533, "name": "", "place_type": "hamlet", "inside_district": true }, "geometry": { "type": "Point", "coordinates": [ 92.2648184, 27.3848639 ] } },
{ "type": "Feature", "properties": { "osm_id": 10870214716, "name": "", "place_type": "hamlet", "inside_district": true }, "geometry": { "type": "Point", "coordinates": [ 92.5125682, 27.3426078 ] } },
{ "type": "Feature", "properties": { "osm_id": 10870214724, "name": "", "place_type": "hamlet", "inside_district": true }, "geometry": { "type": "Point", "coordinates": [ 92.5123647, 27.3451523 ] } },
{ "type": "Feature", "properties": { "osm_id": 10870214734, "name": "", "place_type": "hamlet", "inside_district": true }, "geometry": { "type": "Point", "coordinates": [ 92.5137109, 27.346552 ] } },
{ "type": "Feature", "properties": { "osm_id": 10870214798, "name": "Khoina", "place_type": "hamlet", "inside_district": true }, "geometry": { "type": "Point", "coordinates": [ 92.5222525, 27.351766 ] } },
{ "type": "Feature", "properties": { "osm_id": 10870407275, "name": "", "place_type": "hamlet", "inside_district": true }, "geometry": { "type": "Point", "coordinates": [ 92.4898712, 27.3562798 ] } },
{ "type": "Feature", "properties": { "osm_id": 10870460350, "name": "Rurang", "place_type": "hamlet", "inside_district": true }, "geometry": { "type": "Point", "coordinates": [ 92.4826718, 27.3686001 ] } },
{ "type": "Feature", "properties": { "osm_id": 10870460423, "name": "Bumdirla", "place_type": "hamlet", "inside_district": true }, "geometry": { "type": "Point", "coordinates": [ 92.4757409, 27.3544652 ] } },
{ "type": "Feature", "properties": { "osm_id": 10870460670, "name": "", "place_type": "hamlet", "inside_district": true }, "geometry": { "type": "Point", "coordinates": [ 92.5269975, 27.3666283 ] } },
{ "type": "Feature", "properties": { "osm_id": 10870853709, "name": "", "place_type": "village", "inside_district": true }, "geometry": { "type": "Point", "coordinates": [ 92.2994922, 27.3898173 ] } },
{ "type": "Feature", "properties": { "osm_id": 10870893399, "name": "", "place_type": "hamlet", "inside_district": true }, "geometry": { "type": "Point", "coordinates": [ 92.3143553, 27.3636301 ] } },
{ "type": "Feature", "properties": { "osm_id": 10870893423, "name": "Namshu", "place_type": "village", "inside_district": true }, "geometry": { "type": "Point", "coordinates": [ 92.3210848, 27.3580666 ] } },
{ "type": "Feature", "properties": { "osm_id": 10870894006, "name": "", "place_type": "hamlet", "inside_district": true }, "geometry": { "type": "Point", "coordinates": [ 92.3449936, 27.3485965 ] } },
{ "type": "Feature", "properties": { "osm_id": 10877035264, "name": "Thrizino", "place_type": "town", "inside_district": true }, "geometry": { "type": "Point", "coordinates": [ 92.7400734, 27.3412254 ] } },
{ "type": "Feature", "properties": { "osm_id": 10877196152, "name": "", "place_type": "hamlet", "inside_district": true }, "geometry": { "type": "Point", "coordinates": [ 92.4922893, 27.2253406 ] } },
{ "type": "Feature", "properties": { "osm_id": 10877196187, "name": "", "place_type": "hamlet", "inside_district": true }, "geometry": { "type": "Point", "coordinates": [ 92.4909854, 27.2341946 ] } },
{ "type": "Feature", "properties": { "osm_id": 10877196720, "name": "", "place_type": "hamlet", "inside_district": true }, "geometry": { "type": "Point", "coordinates": [ 92.5058647, 27.2447749 ] } },
{ "type": "Feature", "properties": { "osm_id": 10877196822, "name": "", "place_type": "hamlet", "inside_district": true }, "geometry": { "type": "Point", "coordinates": [ 92.5066423, 27.2517368 ] } },
{ "type": "Feature", "properties": { "osm_id": 10877218213, "name": "", "place_type": "village", "inside_district": true }, "geometry": { "type": "Point", "coordinates": [ 92.5154291, 27.2481651 ] } },
{ "type": "Feature", "properties": { "osm_id": 10877218219, "name": "", "place_type": "hamlet", "inside_district": true }, "geometry": { "type": "Point", "coordinates": [ 92.5207095, 27.2438531 ] } },
{ "type": "Feature", "properties": { "osm_id": 10877218281, "name": "", "place_type": "village", "inside_district": true }, "geometry": { "type": "Point", "coordinates": [ 92.5283508, 27.2438869 ] } },
{ "type": "Feature", "properties": { "osm_id": 10880298436, "name": "", "place_type": "village", "inside_district": true }, "geometry": { "type": "Point", "coordinates": [ 92.5127537, 27.2914834 ] } },
{ "type": "Feature", "properties": { "osm_id": 10882730264, "name": "", "place_type": "hamlet", "inside_district": true }, "geometry": { "type": "Point", "coordinates": [ 92.3863137, 27.3156276 ] } },
{ "type": "Feature", "properties": { "osm_id": 10882730420, "name": "Khoitam", "place_type": "village", "inside_district": true }, "geometry": { "type": "Point", "coordinates": [ 92.3955099, 27.3120904 ] } },
{ "type": "Feature", "properties": { "osm_id": 10882730479, "name": "", "place_type": "hamlet", "inside_district": true }, "geometry": { "type": "Point", "coordinates": [ 92.3244544, 27.2215819 ] } },
{ "type": "Feature", "properties": { "osm_id": 10882730487, "name": "绒囊堆错", "place_type": "village", "inside_district": true }, "geometry": { "type": "Point", "coordinates": [ 92.3053865, 27.2121851 ] } },
{ "type": "Feature", "properties": { "osm_id": 10885793906, "name": "", "place_type": "hamlet", "inside_district": true }, "geometry": { "type": "Point", "coordinates": [ 92.3534885, 27.3281688 ] } },
{ "type": "Feature", "properties": { "osm_id": 10885794167, "name": "", "place_type": "hamlet", "inside_district": true }, "geometry": { "type": "Point", "coordinates": [ 92.2966462, 27.3533083 ] } },
{ "type": "Feature", "properties": { "osm_id": 10885794176, "name": "", "place_type": "hamlet", "inside_district": true }, "geometry": { "type": "Point", "coordinates": [ 92.2913572, 27.3599397 ] } },
{ "type": "Feature", "properties": { "osm_id": 10885794471, "name": "", "place_type": "hamlet", "inside_district": true }, "geometry": { "type": "Point", "coordinates": [ 92.2749812, 27.3979773 ] } },
{ "type": "Feature", "properties": { "osm_id": 10893103439, "name": "", "place_type": "village", "inside_district": true }, "geometry": { "type": "Point", "coordinates": [ 92.1177219, 27.4513422 ] } },
{ "type": "Feature", "properties": { "osm_id": 10893103440, "name": "", "place_type": "village", "inside_district": true }, "geometry": { "type": "Point", "coordinates": [ 92.1102873, 27.4542044 ] } },
{ "type": "Feature", "properties": { "osm_id": 10901214757, "name": "", "place_type": "hamlet", "inside_district": true }, "geometry": { "type": "Point", "coordinates": [ 92.5840797, 27.4062783 ] } },
{ "type": "Feature", "properties": { "osm_id": 10901215054, "name": "", "place_type": "hamlet", "inside_district": true }, "geometry": { "type": "Point", "coordinates": [ 92.5866277, 27.3607884 ] } },
{ "type": "Feature", "properties": { "osm_id": 10901215089, "name": "", "place_type": "hamlet", "inside_district": true }, "geometry": { "type": "Point", "coordinates": [ 92.5888577, 27.3623285 ] } },
{ "type": "Feature", "properties": { "osm_id": 10904467600, "name": "", "place_type": "hamlet", "inside_district": true }, "geometry": { "type": "Point", "coordinates": [ 92.6338255, 27.2350262 ] } },
{ "type": "Feature", "properties": { "osm_id": 10904502527, "name": "", "place_type": "hamlet", "inside_district": true }, "geometry": { "type": "Point", "coordinates": [ 92.6044698, 27.2193525 ] } },
{ "type": "Feature", "properties": { "osm_id": 10904502533, "name": "", "place_type": "hamlet", "inside_district": true }, "geometry": { "type": "Point", "coordinates": [ 92.5977465, 27.2163519 ] } },
{ "type": "Feature", "properties": { "osm_id": 10904502534, "name": "Hussigaon", "place_type": "village", "inside_district": true }, "geometry": { "type": "Point", "coordinates": [ 92.5919724, 27.2030985 ] } },
{ "type": "Feature", "properties": { "osm_id": 10904502918, "name": "", "place_type": "hamlet", "inside_district": true }, "geometry": { "type": "Point", "coordinates": [ 92.6992589, 27.1760235 ] } },
{ "type": "Feature", "properties": { "osm_id": 10904502932, "name": "", "place_type": "hamlet", "inside_district": true }, "geometry": { "type": "Point", "coordinates": [ 92.7033572, 27.1903339 ] } },
{ "type": "Feature", "properties": { "osm_id": 10904502939, "name": "", "place_type": "hamlet", "inside_district": true }, "geometry": { "type": "Point", "coordinates": [ 92.6720095, 27.210067 ] } },
{ "type": "Feature", "properties": { "osm_id": 10904502946, "name": "", "place_type": "hamlet", "inside_district": true }, "geometry": { "type": "Point", "coordinates": [ 92.6849399, 27.2119848 ] } },
{ "type": "Feature", "properties": { "osm_id": 10911463463, "name": "", "place_type": "village", "inside_district": true }, "geometry": { "type": "Point", "coordinates": [ 92.5051651, 27.3258319 ] } },
{ "type": "Feature", "properties": { "osm_id": 10917544787, "name": "", "place_type": "hamlet", "inside_district": true }, "geometry": { "type": "Point", "coordinates": [ 92.7481614, 27.3978781 ] } },
{ "type": "Feature", "properties": { "osm_id": 10917544794, "name": "", "place_type": "hamlet", "inside_district": true }, "geometry": { "type": "Point", "coordinates": [ 92.752959, 27.4115138 ] } },
{ "type": "Feature", "properties": { "osm_id": 10917567485, "name": "Janaching", "place_type": "hamlet", "inside_district": true }, "geometry": { "type": "Point", "coordinates": [ 92.7597549, 27.4311686 ] } },
{ "type": "Feature", "properties": { "osm_id": 10917567954, "name": "", "place_type": "hamlet", "inside_district": true }, "geometry": { "type": "Point", "coordinates": [ 92.6423472, 27.4276922 ] } },
{ "type": "Feature", "properties": { "osm_id": 10917567962, "name": "迪彬", "place_type": "hamlet", "inside_district": true }, "geometry": { "type": "Point", "coordinates": [ 92.5118485, 27.4444441 ] } },
{ "type": "Feature", "properties": { "osm_id": 10921025737, "name": "Khellong", "place_type": "village", "inside_district": true }, "geometry": { "type": "Point", "coordinates": [ 92.5906453, 27.3725828 ] } },
{ "type": "Feature", "properties": { "osm_id": 10925710411, "name": "", "place_type": "hamlet", "inside_district": true }, "geometry": { "type": "Point", "coordinates": [ 92.7506602, 27.4378245 ] } },
{ "type": "Feature", "properties": { "osm_id": 10925710454, "name": "赛气奔", "place_type": "village", "inside_district": true }, "geometry": { "type": "Point", "coordinates": [ 92.5935943, 27.3104848 ] } },
{ "type": "Feature", "properties": { "osm_id": 10925710466, "name": "Bichom", "place_type": "village", "inside_district": true }, "geometry": { "type": "Point", "coordinates": [ 92.6122758, 27.3048995 ] } },
{ "type": "Feature", "properties": { "osm_id": 10925710473, "name": "", "place_type": "village", "inside_district": true }, "geometry": { "type": "Point", "coordinates": [ 92.6266715, 27.2980366 ] } },
{ "type": "Feature", "properties": { "osm_id": 10925710479, "name": "Kamsiri", "place_type": "hamlet", "inside_district": true }, "geometry": { "type": "Point", "coordinates": [ 92.6803797, 27.314248 ] } },
{ "type": "Feature", "properties": { "osm_id": 10925710480, "name": "Yayung", "place_type": "hamlet", "inside_district": true }, "geometry": { "type": "Point", "coordinates": [ 92.688948, 27.3202273 ] } },
{ "type": "Feature", "properties": { "osm_id": 10925710481, "name": "Sakrin", "place_type": "hamlet", "inside_district": true }, "geometry": { "type": "Point", "coordinates": [ 92.698142, 27.3216667 ] } },
{ "type": "Feature", "properties": { "osm_id": 10925710482, "name": "Karangania", "place_type": "village", "inside_district": true }, "geometry": { "type": "Point", "coordinates": [ 92.7195371, 27.3256974 ] } },
{ "type": "Feature", "properties": { "osm_id": 10925710483, "name": "", "place_type": "village", "inside_district": true }, "geometry": { "type": "Point", "coordinates": [ 92.7266245, 27.334374 ] } },
{ "type": "Feature", "properties": { "osm_id": 10925710484, "name": "", "place_type": "village", "inside_district": true }, "geometry": { "type": "Point", "coordinates": [ 92.7261773, 27.3507836 ] } },
{ "type": "Feature", "properties": { "osm_id": 10925710485, "name": "", "place_type": "hamlet", "inside_district": true }, "geometry": { "type": "Point", "coordinates": [ 92.7286469, 27.3580485 ] } },
{ "type": "Feature", "properties": { "osm_id": 10941933055, "name": "Rungja", "place_type": "village", "inside_district": true }, "geometry": { "type": "Point", "coordinates": [ 92.3786, 27.3923244 ] } },
{ "type": "Feature", "properties": { "osm_id": 10958952786, "name": "", "place_type": "hamlet", "inside_district": true }, "geometry": { "type": "Point", "coordinates": [ 93.0351923, 27.6603659 ] } },
{ "type": "Feature", "properties": { "osm_id": 10958953366, "name": "", "place_type": "hamlet", "inside_district": true }, "geometry": { "type": "Point", "coordinates": [ 93.0338038, 27.7030352 ] } },
{ "type": "Feature", "properties": { "osm_id": 10965276842, "name": "", "place_type": "hamlet", "inside_district": true }, "geometry": { "type": "Point", "coordinates": [ 93.1218505, 27.7400673 ] } },
{ "type": "Feature", "properties": { "osm_id": 10992042856, "name": "Chamduk Leyak", "place_type": "hamlet", "inside_district": true }, "geometry": { "type": "Point", "coordinates": [ 92.8167632, 27.3935329 ] } },
{ "type": "Feature", "properties": { "osm_id": 10992073916, "name": "Lower Dzang", "place_type": "village", "inside_district": true }, "geometry": { "type": "Point", "coordinates": [ 92.5359066, 27.3703617 ] } },
{ "type": "Feature", "properties": { "osm_id": 10992073938, "name": "Upper Dzang Colony", "place_type": "village", "inside_district": true }, "geometry": { "type": "Point", "coordinates": [ 92.5490029, 27.3751537 ] } },
{ "type": "Feature", "properties": { "osm_id": 10992073940, "name": "Upper Dzang Village", "place_type": "village", "inside_district": true }, "geometry": { "type": "Point", "coordinates": [ 92.5539249, 27.3799717 ] } },
{ "type": "Feature", "properties": { "osm_id": 10992073945, "name": "Khellong Colony", "place_type": "village", "inside_district": true }, "geometry": { "type": "Point", "coordinates": [ 92.5504245, 27.3667378 ] } },
{ "type": "Feature", "properties": { "osm_id": 10992130243, "name": "Nachibon", "place_type": "village", "inside_district": true }, "geometry": { "type": "Point", "coordinates": [ 92.5343971, 27.4062513 ] } },
{ "type": "Feature", "properties": { "osm_id": 10992498530, "name": "Ditchik", "place_type": "village", "inside_district": true }, "geometry": { "type": "Point", "coordinates": [ 92.5077975, 27.4019818 ] } },
{ "type": "Feature", "properties": { "osm_id": 10994023975, "name": "", "place_type": "village", "inside_district": true }, "geometry": { "type": "Point", "coordinates": [ 92.1070998, 27.5066225 ] } },
{ "type": "Feature", "properties": { "osm_id": 11007238624, "name": "", "place_type": "hamlet", "inside_district": true }, "geometry": { "type": "Point", "coordinates": [ 92.4092132, 27.3203311 ] } },
{ "type": "Feature", "properties": { "osm_id": 11007465976, "name": "Lapusa", "place_type": "village", "inside_district": true }, "geometry": { "type": "Point", "coordinates": [ 92.6214105, 27.3935164 ] } },
{ "type": "Feature", "properties": { "osm_id": 11007466335, "name": "Challan", "place_type": "village", "inside_district": true }, "geometry": { "type": "Point", "coordinates": [ 92.7288759, 27.4129165 ] } },
{ "type": "Feature", "properties": { "osm_id": 11007521794, "name": "Nakhu", "place_type": "village", "inside_district": true }, "geometry": { "type": "Point", "coordinates": [ 92.5394209, 27.4091296 ] } },
{ "type": "Feature", "properties": { "osm_id": 11007527105, "name": "Nijung", "place_type": "hamlet", "inside_district": true }, "geometry": { "type": "Point", "coordinates": [ 92.5873317, 27.3748242 ] } },
{ "type": "Feature", "properties": { "osm_id": 11007527111, "name": "", "place_type": "hamlet", "inside_district": true }, "geometry": { "type": "Point", "coordinates": [ 92.4884788, 27.4004968 ] } },
{ "type": "Feature", "properties": { "osm_id": 11007666927, "name": "", "place_type": "hamlet", "inside_district": true }, "geometry": { "type": "Point", "coordinates": [ 92.7422733, 27.3209751 ] } },
{ "type": "Feature", "properties": { "osm_id": 11007666967, "name": "", "place_type": "hamlet", "inside_district": true }, "geometry": { "type": "Point", "coordinates": [ 92.729824, 27.268247 ] } },
{ "type": "Feature", "properties": { "osm_id": 11007775314, "name": "", "place_type": "hamlet", "inside_district": true }, "geometry": { "type": "Point", "coordinates": [ 92.4928957, 27.4442144 ] } },
{ "type": "Feature", "properties": { "osm_id": 11007775333, "name": "Dillung", "place_type": "hamlet", "inside_district": true }, "geometry": { "type": "Point", "coordinates": [ 92.5096137, 27.4838442 ] } },
{ "type": "Feature", "properties": { "osm_id": 11009712167, "name": "", "place_type": "hamlet", "inside_district": true }, "geometry": { "type": "Point", "coordinates": [ 92.9841367, 27.5677158 ] } },
{ "type": "Feature", "properties": { "osm_id": 11022227376, "name": "", "place_type": "hamlet", "inside_district": true }, "geometry": { "type": "Point", "coordinates": [ 92.9580176, 27.5783557 ] } },
{ "type": "Feature", "properties": { "osm_id": 11022227881, "name": "", "place_type": "hamlet", "inside_district": true }, "geometry": { "type": "Point", "coordinates": [ 93.0235728, 27.6366503 ] } },
{ "type": "Feature", "properties": { "osm_id": 11022227887, "name": "", "place_type": "hamlet", "inside_district": true }, "geometry": { "type": "Point", "coordinates": [ 93.0071933, 27.6309041 ] } },
{ "type": "Feature", "properties": { "osm_id": 11022262362, "name": "", "place_type": "hamlet", "inside_district": true }, "geometry": { "type": "Point", "coordinates": [ 92.989315, 27.6694092 ] } },
{ "type": "Feature", "properties": { "osm_id": 11022276748, "name": "", "place_type": "hamlet", "inside_district": true }, "geometry": { "type": "Point", "coordinates": [ 93.0263947, 27.7208224 ] } },
{ "type": "Feature", "properties": { "osm_id": 11022277013, "name": "", "place_type": "hamlet", "inside_district": true }, "geometry": { "type": "Point", "coordinates": [ 93.0392575, 27.6556889 ] } },
{ "type": "Feature", "properties": { "osm_id": 11282629101, "name": "", "place_type": "hamlet", "inside_district": true }, "geometry": { "type": "Point", "coordinates": [ 92.5832608, 27.0855312 ] } },
{ "type": "Feature", "properties": { "osm_id": 11295521908, "name": "Tania", "place_type": "hamlet", "inside_district": true }, "geometry": { "type": "Point", "coordinates": [ 92.7719092, 27.3008816 ] } },
{ "type": "Feature", "properties": { "osm_id": 11397971513, "name": "贡岗", "place_type": "village", "inside_district": true }, "geometry": { "type": "Point", "coordinates": [ 92.1170503, 26.8952222 ] } },
{ "type": "Feature", "properties": { "osm_id": 11773258622, "name": "白则林", "place_type": "village", "inside_district": true }, "geometry": { "type": "Point", "coordinates": [ 92.1480119, 27.0543201 ] } },
{ "type": "Feature", "properties": { "osm_id": 11773258623, "name": "", "place_type": "village", "inside_district": true }, "geometry": { "type": "Point", "coordinates": [ 92.2206191, 27.3829742 ] } },
{ "type": "Feature", "properties": { "osm_id": 11883835079, "name": "Yangse", "place_type": "village", "inside_district": true }, "geometry": { "type": "Point", "coordinates": [ 92.8905218, 27.2629563 ] } },
{ "type": "Feature", "properties": { "osm_id": 11883835081, "name": "New Sapong", "place_type": "village", "inside_district": true }, "geometry": { "type": "Point", "coordinates": [ 92.8167398, 27.3145838 ] } },
{ "type": "Feature", "properties": { "osm_id": 11883835082, "name": "Kaya Valley Village", "place_type": "village", "inside_district": true }, "geometry": { "type": "Point", "coordinates": [ 92.8063377, 27.313088 ] } },
{ "type": "Feature", "properties": { "osm_id": 12288706068, "name": "Bisai", "place_type": "hamlet", "inside_district": true }, "geometry": { "type": "Point", "coordinates": [ 92.700203, 27.6803062 ] } },
{ "type": "Feature", "properties": { "osm_id": 12508573307, "name": "Domkho", "place_type": "village", "inside_district": true }, "geometry": { "type": "Point", "coordinates": [ 92.2161278, 27.1747936 ] } },
{ "type": "Feature", "properties": { "osm_id": 12508573308, "name": "Sanglem", "place_type": "village", "inside_district": true }, "geometry": { "type": "Point", "coordinates": [ 92.190809, 27.1723738 ] } },
{ "type": "Feature", "properties": { "osm_id": 12731918529, "name": "Takung Sullung", "place_type": "hamlet", "inside_district": true }, "geometry": { "type": "Point", "coordinates": [ 92.9545701, 27.737803 ] } },
{ "type": "Feature", "properties": { "osm_id": 13155904439, "name": "Pangma", "place_type": "village", "inside_district": true }, "geometry": { "type": "Point", "coordinates": [ 92.373989, 27.3854171 ] } },
{ "type": "Feature", "properties": { "osm_id": 13155904440, "name": "Cherrong", "place_type": "hamlet", "inside_district": true }, "geometry": { "type": "Point", "coordinates": [ 92.3831955, 27.3807519 ] } },
{ "type": "Feature", "properties": { "osm_id": 13155904441, "name": "马尼堆", "place_type": "hamlet", "inside_district": true }, "geometry": { "type": "Point", "coordinates": [ 92.4152633, 27.3583409 ] } },
{ "type": "Feature", "properties": { "osm_id": 13155911614, "name": "Balung Camper", "place_type": "hamlet", "inside_district": true }, "geometry": { "type": "Point", "coordinates": [ 92.3186566, 27.3399024 ] } },
{ "type": "Feature", "properties": { "osm_id": 13155911615, "name": "Yewang", "place_type": "village", "inside_district": true }, "geometry": { "type": "Point", "coordinates": [ 92.2940902, 27.3361328 ] } },
{ "type": "Feature", "properties": { "osm_id": 13155911616, "name": "列木来", "place_type": "village", "inside_district": true }, "geometry": { "type": "Point", "coordinates": [ 92.2435033, 27.3762335 ] } },
{ "type": "Feature", "properties": { "osm_id": 13155911617, "name": "李错", "place_type": "village", "inside_district": true }, "geometry": { "type": "Point", "coordinates": [ 92.223121, 27.3784586 ] } },
{ "type": "Feature", "properties": { "osm_id": 13155911618, "name": "煎酒干娘", "place_type": "hamlet", "inside_district": true }, "geometry": { "type": "Point", "coordinates": [ 92.2125845, 27.4563286 ] } },
{ "type": "Feature", "properties": { "osm_id": 13155911619, "name": "Phudung", "place_type": "village", "inside_district": true }, "geometry": { "type": "Point", "coordinates": [ 92.2369306, 27.235272 ] } },
{ "type": "Feature", "properties": { "osm_id": 13155911620, "name": "瓦布兰", "place_type": "village", "inside_district": true }, "geometry": { "type": "Point", "coordinates": [ 92.2479401, 27.213358 ] } },
{ "type": "Feature", "properties": { "osm_id": 13157348144, "name": "Norang", "place_type": "hamlet", "inside_district": true }, "geometry": { "type": "Point", "coordinates": [ 92.9783276, 27.5824001 ] } },
{ "type": "Feature", "properties": { "osm_id": 13157348145, "name": "古赛", "place_type": "hamlet", "inside_district": true }, "geometry": { "type": "Point", "coordinates": [ 93.1675301, 27.743838 ] } },
{ "type": "Feature", "properties": { "osm_id": 13157834322, "name": "Chaku", "place_type": "village", "inside_district": true }, "geometry": { "type": "Point", "coordinates": [ 92.4137312, 27.1029769 ] } },
{ "type": "Feature", "properties": { "osm_id": 13157834323, "name": "Doimara", "place_type": "hamlet", "inside_district": true }, "geometry": { "type": "Point", "coordinates": [ 92.4205993, 26.9896634 ] } },
{ "type": "Feature", "properties": { "osm_id": 13157834386, "name": "Buragaon", "place_type": "village", "inside_district": true }, "geometry": { "type": "Point", "coordinates": [ 92.6706806, 27.256114 ] } },
{ "type": "Feature", "properties": { "osm_id": 13157834387, "name": "Pyudung", "place_type": "village", "inside_district": true }, "geometry": { "type": "Point", "coordinates": [ 92.7082264, 27.2991401 ] } },
{ "type": "Feature", "properties": { "osm_id": 13157834388, "name": "Nizau", "place_type": "hamlet", "inside_district": true }, "geometry": { "type": "Point", "coordinates": [ 92.6401101, 27.41292 ] } },
{ "type": "Feature", "properties": { "osm_id": 13157847510, "name": "Tsokphuisa", "place_type": "village", "inside_district": true }, "geometry": { "type": "Point", "coordinates": [ 92.1817028, 27.280403 ] } },
{ "type": "Feature", "properties": { "osm_id": 13157847511, "name": "Omling Gumpha", "place_type": "village", "inside_district": true }, "geometry": { "type": "Point", "coordinates": [ 92.1483055, 27.3154109 ] } },
{ "type": "Feature", "properties": { "osm_id": 13157847512, "name": "Ankalin", "place_type": "village", "inside_district": true }, "geometry": { "type": "Point", "coordinates": [ 92.1451266, 27.0365029 ] } },
{ "type": "Feature", "properties": { "osm_id": 13157847513, "name": "Rongthangjurpam", "place_type": "village", "inside_district": true }, "geometry": { "type": "Point", "coordinates": [ 92.1315055, 27.0382758 ] } },
{ "type": "Feature", "properties": { "osm_id": 13157847514, "name": "Balem", "place_type": "village", "inside_district": true }, "geometry": { "type": "Point", "coordinates": [ 92.1516917, 26.9649897 ] } },
{ "type": "Feature", "properties": { "osm_id": 13158171582, "name": "Warrangpam", "place_type": "village", "inside_district": true }, "geometry": { "type": "Point", "coordinates": [ 92.0745879, 27.1186044 ] } },
{ "type": "Feature", "properties": { "osm_id": 13185904799, "name": "必雄参", "place_type": "hamlet", "inside_district": true }, "geometry": { "type": "Point", "coordinates": [ 92.2684618, 27.4293298 ] } },
{ "type": "Feature", "properties": { "osm_id": 13185904800, "name": "纽辛参", "place_type": "hamlet", "inside_district": true }, "geometry": { "type": "Point", "coordinates": [ 92.3145952, 27.437321 ] } },
{ "type": "Feature", "properties": { "osm_id": 13197264678, "name": "米龙岗", "place_type": "village", "inside_district": true }, "geometry": { "type": "Point", "coordinates": [ 92.1793194, 27.3660206 ] } },
{ "type": "Feature", "properties": { "osm_id": 13197302517, "name": "墨生", "place_type": "village", "inside_district": true }, "geometry": { "type": "Point", "coordinates": [ 92.1703184, 27.3530199 ] } },
{ "type": "Feature", "properties": { "osm_id": 13249851328, "name": "打陇宗", "place_type": "hamlet", "inside_district": true }, "geometry": { "type": "Point", "coordinates": [ 92.2013119, 27.174991 ] } },
{ "type": "Feature", "properties": { "osm_id": 13255810006, "name": "", "place_type": "village", "inside_district": true }, "geometry": { "type": "Point", "coordinates": [ 92.4632997, 27.4377408 ] } },
{ "type": "Feature", "properties": { "osm_id": 13293681171, "name": "若波朗钦", "place_type": "hamlet", "inside_district": true }, "geometry": { "type": "Point", "coordinates": [ 92.1082163, 27.0752385 ] } },
{ "type": "Feature", "properties": { "osm_id": 13293681172, "name": "多龙普", "place_type": "village", "inside_district": true }, "geometry": { "type": "Point", "coordinates": [ 92.5030445, 27.215139 ] } },
{ "type": "Feature", "properties": { "osm_id": 13313740500, "name": "Lungdur", "place_type": "village", "inside_district": true }, "geometry": { "type": "Point", "coordinates": [ 92.1424974, 27.0688012 ] } },
{ "type": "Feature", "properties": { "osm_id": 13327721581, "name": "Sekang", "place_type": "village", "inside_district": true }, "geometry": { "type": "Point", "coordinates": [ 92.7922747, 27.4627297 ] } },
{ "type": "Feature", "properties": { "osm_id": 13449278997, "name": "Kelong", "place_type": "hamlet", "inside_district": true }, "geometry": { "type": "Point", "coordinates": [ 92.2427554, 27.2303722 ] } },
{ "type": "Feature", "properties": { "osm_id": 13449278998, "name": "Banre", "place_type": "hamlet", "inside_district": true }, "geometry": { "type": "Point", "coordinates": [ 92.2542424, 27.2136317 ] } },
{ "type": "Feature", "properties": { "osm_id": 13948120028, "name": "Gohainthan", "place_type": "hamlet", "inside_district": true }, "geometry": { "type": "Point", "coordinates": [ 92.6130432, 27.2167258 ] } },
{ "type": "Feature", "properties": { "osm_id": 13948120029, "name": "Palatari", "place_type": "village", "inside_district": true }, "geometry": { "type": "Point", "coordinates": [ 92.7311457, 27.3029167 ] } },
{ "type": "Feature", "properties": { "osm_id": 13955745942, "name": "Hanche", "place_type": "hamlet", "inside_district": true }, "geometry": { "type": "Point", "coordinates": [ 93.0637776, 27.7421636 ] } }
]
}
