{
"type": "FeatureCollection",
"name": "west_kameng_boundary",
"crs": { "type": "name", "properties": { "name": "urn:ogc:def:crs:OGC:1.3:CRS84" } },
"features": [
{"type":"Feature","properties":{"GID_2":"Z07.3.17_1","GID_0":"Z07","COUNTRY":"India","GID_1":"Z07.3_1","NAME_1":"ArunachalPradesh","NL_NAME_1":"NA","NAME_2":"WestKameng","VARNAME_2":"NA","NL_NAME_2":"NA","TYPE_2":"District","ENGTYPE_2":"District","CC_2":"NA","HASC_2":"IN.AR.WK"},"geometry":{"type":"MultiPolygon","coordinates":[[[[93.2077,27.7419],[93.195,27.739],[93.1849,27.74],[93.1807,27.7387],[93.1653,27.7419],[93.1485,27.7387],[93.1407,27.729],[93.1408,27.717],[93.1382,27.7114],[93.1153,27.692],[93.1136,27.6859],[93.1015,27.6829],[93.0904,27.6668],[93.0832,27.663],[93.0812,27.6543],[93.0789,27.6512],[93.0694,27.6489],[93.0551,27.6504],[93.0442,27.643],[93.0402,27.638],[93.0354,27.626],[93.0342,27.6169],[93.0306,27.6139],[93.0308,27.6084],[93.0289,27.6038],[93.017,27.5972],[93.0104,27.5837],[93.0019,27.5785],[92.9963,27.5723],[92.9842,27.5634],[92.9789,27.5627],[92.9713,27.5651],[92.9648,27.5698],[92.9602,27.5765],[92.9504,27.5772],[92.9398,27.5845],[92.9359,27.5926],[92.9325,27.5911],[92.9288,27.5917],[92.9283,27.5953],[92.9194,27.5992],[92.9138,27.6045],[92.9065,27.6046],[92.8954,27.6107],[92.8889,27.6213],[92.8691,27.6366],[92.8609,27.645],[92.8531,27.6479],[92.8448,27.6459],[92.8354,27.6456],[92.8326,27.6479],[92.8272,27.6472],[92.8121,27.6376],[92.8086,27.6459],[92.8062,27.6473],[92.797,27.6439],[92.7905,27.6432],[92.7779,27.6446],[92.773,27.6473],[92.7709,27.6445],[92.767,27.6469],[92.7483,27.6226],[92.7375,27.6268],[92.7208,27.64],[92.7192,27.6468],[92.717,27.6478],[92.7141,27.6405],[92.7091,27.6341],[92.7085,27.6293],[92.6956,27.618],[92.6912,27.6177],[92.68,27.6063],[92.6755,27.6055],[92.653,27.5862],[92.6462,27.5769],[92.6476,27.5716],[92.6429,27.553],[92.6434,27.5434],[92.6466,27.5359],[92.6571,27.5262],[92.6653,27.5367],[92.6783,27.5384],[92.684,27.542],[92.6927,27.5446],[92.6975,27.5486],[92.7046,27.5496],[92.7084,27.5528],[92.7125,27.5529],[92.7183,27.5571],[92.7381,27.5557],[92.7502,27.5522],[92.7713,27.5502],[92.7835,27.5573],[92.7899,27.555],[92.7991,27.5387],[92.8057,27.533],[92.8098,27.5233],[92.8136,27.5252],[92.8146,27.5191],[92.8119,27.5175],[92.8133,27.5079],[92.8106,27.4853],[92.8077,27.4748],[92.8032,27.471],[92.8028,27.4659],[92.8048,27.4582],[92.8041,27.4536],[92.8011,27.4521],[92.8061,27.444],[92.8064,27.4362],[92.809,27.4345],[92.8067,27.4319],[92.8081,27.4289],[92.8128,27.4281],[92.8123,27.4246],[92.8047,27.4202],[92.8157,27.4152],[92.8184,27.4175],[92.8214,27.4104],[92.821,27.3911],[92.8236,27.3821],[92.8223,27.3784],[92.8159,27.3805],[92.8145,27.3784],[92.8138,27.3692],[92.8158,27.3676],[92.8145,27.356],[92.8062,27.3602],[92.8042,27.357],[92.8066,27.3509],[92.8034,27.3505],[92.8016,27.3524],[92.7998,27.3515],[92.8054,27.3452],[92.8087,27.3379],[92.8089,27.3356],[92.8068,27.3333],[92.8092,27.329],[92.8191,27.3213],[92.8208,27.3181],[92.8328,27.3124],[92.8446,27.304],[92.8474,27.2907],[92.8714,27.2923],[92.874,27.2938],[92.8784,27.2886],[92.8882,27.2858],[92.8901,27.2824],[92.8892,27.2787],[92.8855,27.2769],[92.888,27.2721],[92.8961,27.2677],[92.8941,27.2599],[92.8994,27.2542],[92.8953,27.25],[92.897,27.2349],[92.9031,27.2213],[92.9029,27.2152],[92.8998,27.2096],[92.8938,27.206],[92.8755,27.2018],[92.8693,27.1993],[92.8643,27.1951],[92.8554,27.1944],[92.8323,27.1888],[92.8162,27.1792],[92.7989,27.1826],[92.7816,27.1823],[92.7683,27.1954],[92.7646,27.197],[92.7499,27.1966],[92.7387,27.1918],[92.7367,27.1888],[92.7287,27.1854],[92.7167,27.1772],[92.6972,27.1738],[92.6879,27.167],[92.678,27.1649],[92.6749,27.1621],[92.6704,27.1626],[92.6498,27.1531],[92.6377,27.1514],[92.6322,27.1487],[92.6245,27.15],[92.6171,27.1473],[92.6079,27.1414],[92.6069,27.1267],[92.6015,27.121],[92.6018,27.1093],[92.5941,27.1058],[92.6002,27.0983],[92.5919,27.0867],[92.5902,27.0802],[92.5978,27.0542],[92.6052,27.0454],[92.6239,27.0299],[92.6356,27.0252],[92.6446,27.01],[92.6455,26.9874],[92.5852,26.9619],[92.5536,26.9591],[92.505,26.9668],[92.4596,26.9633],[92.4462,26.9606],[92.4422,26.955],[92.4258,26.9435],[92.4119,26.9442],[92.3998,26.9263],[92.3673,26.9316],[92.3531,26.9356],[92.3029,26.9242],[92.3037,26.9095],[92.2764,26.9025],[92.2679,26.9051],[92.2546,26.9122],[92.1948,26.891],[92.1624,26.8927],[92.1242,26.8898],[92.113,26.8924],[92.1168,26.8965],[92.1201,26.9095],[92.1165,26.9184],[92.1176,26.929],[92.1159,26.936],[92.1183,26.9409],[92.1144,26.9475],[92.1147,26.9523],[92.1222,26.9579],[92.1199,26.9655],[92.1197,26.9733],[92.1128,26.9758],[92.105,26.9817],[92.1046,26.987],[92.1072,26.9902],[92.1012,27.0068],[92.0958,27.0097],[92.0932,27.0131],[92.0783,27.0177],[92.0777,27.0264],[92.0828,27.0346],[92.0815,27.0412],[92.0745,27.0419],[92.055,27.0514],[92.044,27.0516],[92.0428,27.0561],[92.0372,27.0623],[92.0372,27.0692],[92.0312,27.0804],[92.031,27.0931],[92.0239,27.1095],[92.0262,27.1126],[92.0261,27.1152],[92.0322,27.1228],[92.0359,27.14],[92.0313,27.1541],[92.0283,27.1586],[92.0268,27.1686],[92.0277,27.1707],[92.0343,27.1747],[92.0401,27.1823],[92.0507,27.1836],[92.0541,27.187],[92.059,27.1942],[92.0586,27.2004],[92.0621,27.2109],[92.069,27.2159],[92.0709,27.2262],[92.0706,27.238],[92.0595,27.252],[92.0563,27.254],[92.0385,27.2548],[92.0412,27.2607],[92.0453,27.2637],[92.0451,27.2689],[92.0481,27.269],[92.0508,27.2712],[92.06,27.2719],[92.0664,27.2767],[92.07,27.2758],[92.0737,27.2782],[92.0755,27.2782],[92.08,27.2733],[92.0872,27.2691],[92.0954,27.2698],[92.1045,27.268],[92.1082,27.2704],[92.1136,27.2695],[92.1218,27.2726],[92.1237,27.2751],[92.1248,27.2824],[92.123,27.284],[92.123,27.2865],[92.1167,27.2922],[92.1068,27.2973],[92.1023,27.3014],[92.0897,27.304],[92.0789,27.3115],[92.0735,27.3189],[92.0664,27.3247],[92.0618,27.3433],[92.0534,27.3515],[92.0549,27.3526],[92.0499,27.3596],[92.0472,27.3609],[92.0491,27.3769],[92.0548,27.3828],[92.0551,27.3954],[92.0558,27.3981],[92.0583,27.4],[92.0463,27.41],[92.0436,27.4141],[92.0412,27.4196],[92.0441,27.427],[92.0415,27.4353],[92.0357,27.4399],[92.0268,27.4403],[92.0227,27.4458],[92.0188,27.4803],[92.001,27.4787],[92.0112,27.4818],[92.0317,27.4915],[92.0937,27.5282],[92.1114,27.5477],[92.134,27.5651],[92.155,27.5749],[92.1719,27.5849],[92.1845,27.5955],[92.21,27.6065],[92.232,27.6189],[92.2464,27.6295],[92.2551,27.6386],[92.2698,27.6596],[92.2795,27.6769],[92.3092,27.755],[92.316,27.7782],[92.3503,27.7907],[92.3798,27.795],[92.383,27.8156],[92.4069,27.8221],[92.4139,27.823],[92.4438,27.8008],[92.4549,27.8033],[92.4925,27.8368],[92.5013,27.8415],[92.5151,27.8402],[92.5439,27.8175],[92.5543,27.8183],[92.5607,27.821],[92.5857,27.8569],[92.6051,27.8775],[92.6204,27.8845],[92.6516,27.893],[92.6692,27.9001],[92.7013,27.9338],[92.7139,27.9493],[92.7332,27.9779],[92.7367,27.973],[92.7457,27.9676],[92.7565,27.9576],[92.7781,27.954],[92.7865,27.9511],[92.8205,27.9596],[92.8278,27.9578],[92.8584,27.957],[92.8579,27.9496],[92.8677,27.9447],[92.8689,27.9463],[92.8786,27.9389],[92.9295,27.9205],[92.9307,27.9135],[92.9282,27.9048],[92.9314,27.8929],[92.9304,27.8759],[92.9369,27.8715],[92.9373,27.8609],[92.9423,27.8579],[92.9439,27.8459],[92.9462,27.8424],[92.9526,27.8445],[92.9592,27.8434],[92.9659,27.827],[92.9784,27.824],[92.9819,27.8212],[93.0034,27.8262],[93.0081,27.8209],[93.0115,27.8199],[93.0227,27.8237],[93.0348,27.8242],[93.061,27.8298],[93.0717,27.8299],[93.0947,27.8117],[93.1082,27.8205],[93.1242,27.8201],[93.1298,27.8242],[93.1527,27.8226],[93.1589,27.8196],[93.1673,27.8227],[93.1738,27.8224],[93.1852,27.8333],[93.1876,27.8458],[93.1961,27.8473],[93.2061,27.8372],[93.2173,27.8321],[93.221,27.832],[93.2204,27.8292],[93.2225,27.8232],[93.2265,27.8199],[93.2331,27.8094],[93.2363,27.7979],[93.2297,27.7762],[93.2201,27.7651],[93.2211,27.7606],[93.2077,27.7419]]]]}}
]
}
