{
"type": "FeatureCollection",
"name": "papum_pare_boundary",
"crs": { "type": "name", "properties": { "name": "urn:ogc:def:crs:OGC:1.3:CRS84" } },
"features": [
{"type":"Feature","properties":{"GID_2":"Z07.3.12_1","GID_0":"Z07","COUNTRY":"India","GID_1":"Z07.3_1","NAME_1":"ArunachalPradesh","NL_NAME_1":"NA","NAME_2":"PapumPare","VARNAME_2":"NA","NL_NAME_2":"NA","TYPE_2":"District","ENGTYPE_2":"District","CC_2":"NA","HASC_2":"IN.AR.PA"},"geometry":{"type":"MultiPolygon","coordinates":[[[[93.3907,26.96],[93.3877,26.9745],[93.3813,26.9768],[93.3808,26.9806],[93.387,26.9829],[93.3862,26.9857],[93.3699,26.9832],[93.3616,26.984],[93.3472,26.9946],[93.3407,27.0032],[93.3403,27.009],[93.345,27.0129],[93.3417,27.0187],[93.3437,27.0261],[93.3409,27.0344],[93.3437,27.0403],[93.3429,27.0418],[93.3395,27.0422],[93.33,27.0603],[93.3238,27.064],[93.3133,27.0813],[93.3076,27.0799],[93.3049,27.0813],[93.3002,27.0781],[93.2968,27.0783],[93.2863,27.0874],[93.285,27.094],[93.2727,27.1054],[93.2599,27.1101],[93.243,27.1133],[93.23,27.1115],[93.2209,27.1159],[93.2161,27.1161],[93.2135,27.1185],[93.2112,27.1328],[93.2166,27.1407],[93.2295,27.1425],[93.2454,27.156],[93.2707,27.1557],[93.273,27.1569],[93.274,27.1597],[93.2826,27.163],[93.2838,27.165],[93.2949,27.1652],[93.31,27.1743],[93.3002,27.1816],[93.3005,27.1889],[93.2832,27.2017],[93.2796,27.2095],[93.2735,27.213],[93.2649,27.2127],[93.2493,27.2045],[93.2291,27.2004],[93.2216,27.2054],[93.2203,27.2174],[93.2263,27.2247],[93.2228,27.2301],[93.2249,27.2387],[93.2289,27.2381],[93.2304,27.2412],[93.2337,27.2407],[93.232,27.2458],[93.2254,27.2524],[93.2374,27.2592],[93.2454,27.2664],[93.2516,27.268],[93.2538,27.2733],[93.2583,27.2764],[93.2697,27.2787],[93.2812,27.2853],[93.2881,27.2872],[93.2948,27.2923],[93.2936,27.3019],[93.2949,27.3046],[93.2931,27.3075],[93.2952,27.3083],[93.2951,27.3139],[93.292,27.3156],[93.2898,27.3311],[93.3004,27.3361],[93.3071,27.3462],[93.3158,27.3494],[93.3223,27.3543],[93.3379,27.3578],[93.3397,27.3569],[93.3425,27.3596],[93.3723,27.3732],[93.3683,27.3813],[93.373,27.3887],[93.3689,27.4035],[93.37,27.4137],[93.3683,27.4183],[93.3619,27.4237],[93.3515,27.4269],[93.3431,27.4337],[93.3383,27.4348],[93.3303,27.4455],[93.3204,27.4431],[93.3152,27.4449],[93.3244,27.4533],[93.3269,27.4644],[93.3223,27.4699],[93.3197,27.4796],[93.32,27.491],[93.316,27.4935],[93.3164,27.4961],[93.3123,27.5055],[93.3108,27.5073],[93.305,27.5075],[93.3002,27.5211],[93.2965,27.5221],[93.2946,27.5246],[93.3161,27.5354],[93.3188,27.5457],[93.3225,27.5494],[93.329,27.5505],[93.3307,27.5536],[93.3256,27.5632],[93.3215,27.5671],[93.3115,27.5685],[93.2996,27.5799],[93.2845,27.579],[93.2805,27.5806],[93.2847,27.5888],[93.271,27.5954],[93.2848,27.6161],[93.3079,27.6297],[93.3296,27.6392],[93.3703,27.6419],[93.4314,27.6419],[93.4382,27.6392],[93.4558,27.6256],[93.4898,27.6242],[93.4993,27.6283],[93.5155,27.6297],[93.5278,27.6229],[93.5318,27.6079],[93.544,27.5835],[93.5576,27.5672],[93.582,27.5442],[93.6133,27.5048],[93.6309,27.5007],[93.639,27.4953],[93.635,27.4831],[93.6092,27.4722],[93.5834,27.4559],[93.5644,27.4329],[93.5644,27.4152],[93.5725,27.4044],[93.5861,27.3949],[93.5997,27.3894],[93.6038,27.3582],[93.6146,27.346],[93.6567,27.3311],[93.6906,27.3297],[93.787,27.3297],[93.8087,27.3392],[93.8358,27.3636],[93.8358,27.3813],[93.829,27.3949],[93.829,27.4057],[93.8453,27.4274],[93.8589,27.4397],[93.8738,27.4627],[93.8955,27.4844],[93.9933,27.4872],[94.0109,27.479],[94.0299,27.4777],[94.053,27.4681],[94.0679,27.4668],[94.1032,27.4736],[94.1263,27.4953],[94.1534,27.5129],[94.1846,27.517],[94.2009,27.517],[94.2077,27.5075],[94.2107,27.4979],[94.1912,27.4963],[94.1869,27.4908],[94.1747,27.4841],[94.1679,27.4842],[94.1572,27.478],[94.1602,27.4665],[94.1408,27.4485],[94.1171,27.431],[94.1065,27.4181],[94.0933,27.4109],[94.0863,27.4046],[94.0609,27.3636],[94.0548,27.3628],[94.0416,27.3533],[94.0301,27.348],[94.0258,27.3477],[94.0,27.3347],[94.0007,27.3301],[93.9902,27.3246],[93.9809,27.3138],[93.9565,27.2948],[93.9339,27.2683],[93.901,27.2415],[93.893,27.231],[93.8856,27.2244],[93.8674,27.1988],[93.8575,27.1911],[93.8399,27.1735],[93.8267,27.1694],[93.817,27.1582],[93.8086,27.1518],[93.8056,27.1378],[93.8014,27.1379],[93.7978,27.136],[93.8002,27.1326],[93.8058,27.1348],[93.8135,27.132],[93.8139,27.1286],[93.8114,27.1263],[93.8132,27.1238],[93.822,27.122],[93.8255,27.1193],[93.8272,27.1119],[93.8266,27.0994],[93.833,27.0876],[93.8362,27.0865],[93.8344,27.0828],[93.8367,27.0782],[93.835,27.075],[93.829,27.0721],[93.8282,27.069],[93.8246,27.0722],[93.8229,27.0683],[93.8188,27.0649],[93.8157,27.0655],[93.8129,27.0707],[93.8102,27.0681],[93.8085,27.0626],[93.8049,27.0613],[93.8021,27.0618],[93.7971,27.0709],[93.794,27.0577],[93.7912,27.0546],[93.7874,27.0542],[93.7823,27.0669],[93.7779,27.0528],[93.7737,27.0624],[93.7724,27.0623],[93.7718,27.0555],[93.7682,27.0555],[93.7685,27.0433],[93.7189,27.0192],[93.7056,27.0083],[93.7045,27.0066],[93.7057,27.0037],[93.701,26.9971],[93.6758,26.9711],[93.6551,26.9665],[93.6245,26.9642],[93.5842,26.9526],[93.5708,26.9541],[93.5258,26.9486],[93.4894,26.9385],[93.4868,26.9431],[93.4803,26.9402],[93.4681,26.9389],[93.4638,26.9435],[93.4479,26.9542],[93.3907,26.96]]]]}}
]
}
