{
"type": "FeatureCollection",
"name": "villages_papum_pare",
"crs": { "type": "name", "properties": { "name": "urn:ogc:def:crs:OGC:1.3:CRS84" } },
"features": [
{ "type": "Feature", "properties": { "osm_id": 245757974, "name": "Kimin", "place_type": "town", "inside_district": true }, "geometry": { "type": "Point", "coordinates": [ 93.9656023, 27.3057191 ] } },
{ "type": "Feature", "properties": { "osm_id": 342098982, "name": "Naharlagun", "place_type": "town", "inside_district": true }, "geometry": { "type": "Point", "coordinates": [ 93.6923923, 27.103045 ] } },
{ "type": "Feature", "properties": { "osm_id": 342100211, "name": "Lichi", "place_type": "village", "inside_district": true }, "geometry": { "type": "Point", "coordinates": [ 93.8790823, 27.3762483 ] } },
{ "type": "Feature", "properties": { "osm_id": 831395781, "name": "Sagalee", "place_type": "village", "inside_district": true }, "geometry": { "type": "Point", "coordinates": [ 93.4919106, 27.2514672 ] } },
{ "type": "Feature", "properties": { "osm_id": 1676604024, "name": "Doimukh", "place_type": "town", "inside_district": true }, "geometry": { "type": "Point", "coordinates": [ 93.7549422, 27.150677 ] } },
{ "type": "Feature", "properties": { "osm_id": 1696831494, "name": "Yupia", "place_type": "village", "inside_district": true }, "geometry": { "type": "Point", "coordinates": [ 93.7205996, 27.1462282 ] } },
{ "type": "Feature", "properties": { "osm_id": 6270119936, "name": "Kokila", "place_type": "village", "inside_district": true }, "geometry": { "type": "Point", "coordinates": [ 93.6615479, 26.9750556 ] } },
{ "type": "Feature", "properties": { "osm_id": 6270120052, "name": "Datt", "place_type": "village", "inside_district": true }, "geometry": { "type": "Point", "coordinates": [ 93.6316406, 27.071445 ] } },
{ "type": "Feature", "properties": { "osm_id": 7164488648, "name": "帕让", "place_type": "village", "inside_district": true }, "geometry": { "type": "Point", "coordinates": [ 93.5050893, 27.3324492 ] } },
{ "type": "Feature", "properties": { "osm_id": 7164489286, "name": "Leporiang", "place_type": "village", "inside_district": true }, "geometry": { "type": "Point", "coordinates": [ 93.3412385, 27.2296952 ] } },
{ "type": "Feature", "properties": { "osm_id": 7164489287, "name": "Sangdupota", "place_type": "village", "inside_district": true }, "geometry": { "type": "Point", "coordinates": [ 93.3882951, 27.0433408 ] } },
{ "type": "Feature", "properties": { "osm_id": 7164489288, "name": "Taraso", "place_type": "hamlet", "inside_district": true }, "geometry": { "type": "Point", "coordinates": [ 93.417263, 27.0037729 ] } },
{ "type": "Feature", "properties": { "osm_id": 7164489289, "name": "Balijan", "place_type": "village", "inside_district": true }, "geometry": { "type": "Point", "coordinates": [ 93.4977293, 26.9492152 ] } },
{ "type": "Feature", "properties": { "osm_id": 7164489290, "name": "Toru", "place_type": "village", "inside_district": true }, "geometry": { "type": "Point", "coordinates": [ 93.6874151, 27.2155276 ] } },
{ "type": "Feature", "properties": { "osm_id": 7164489291, "name": "Gumto", "place_type": "village", "inside_district": true }, "geometry": { "type": "Point", "coordinates": [ 93.7971711, 27.1393161 ] } },
{ "type": "Feature", "properties": { "osm_id": 7164508039, "name": "墨工", "place_type": "village", "inside_district": true }, "geometry": { "type": "Point", "coordinates": [ 93.4894895, 27.5311072 ] } },
{ "type": "Feature", "properties": { "osm_id": 8426631313, "name": "Hoj", "place_type": "village", "inside_district": true }, "geometry": { "type": "Point", "coordinates": [ 93.7962592, 27.2612486 ] } },
{ "type": "Feature", "properties": { "osm_id": 9049803066, "name": "Jote", "place_type": "village", "inside_district": true }, "geometry": { "type": "Point", "coordinates": [ 93.4637148, 27.042104 ] } },
{ "type": "Feature", "properties": { "osm_id": 9427289494, "name": "Holongi", "place_type": "village", "inside_district": true }, "geometry": { "type": "Point", "coordinates": [ 93.5972499, 26.9711141 ] } },
{ "type": "Feature", "properties": { "osm_id": 10307867175, "name": "Banderdeva", "place_type": "village", "inside_district": true }, "geometry": { "type": "Point", "coordinates": [ 93.8242125, 27.1088459 ] } },
{ "type": "Feature", "properties": { "osm_id": 11037094478, "name": "", "place_type": "hamlet", "inside_district": true }, "geometry": { "type": "Point", "coordinates": [ 93.630059, 27.4858635 ] } },
{ "type": "Feature", "properties": { "osm_id": 11037094495, "name": "", "place_type": "hamlet", "inside_district": true }, "geometry": { "type": "Point", "coordinates": [ 93.6351441, 27.4845005 ] } },
{ "type": "Feature", "properties": { "osm_id": 11037272245, "name": "", "place_type": "hamlet", "inside_district": true }, "geometry": { "type": "Point", "coordinates": [ 93.6224002, 27.4811559 ] } },
{ "type": "Feature", "properties": { "osm_id": 11038672144, "name": "", "place_type": "village", "inside_district": true }, "geometry": { "type": "Point", "coordinates": [ 93.5683598, 27.4472759 ] } },
{ "type": "Feature", "properties": { "osm_id": 11039605944, "name": "", "place_type": "hamlet", "inside_district": true }, "geometry": { "type": "Point", "coordinates": [ 93.5606794, 27.4317534 ] } },
{ "type": "Feature", "properties": { "osm_id": 11039606318, "name": "", "place_type": "hamlet", "inside_district": true }, "geometry": { "type": "Point", "coordinates": [ 93.5525359, 27.4345168 ] } },
{ "type": "Feature", "properties": { "osm_id": 11039606358, "name": "", "place_type": "hamlet", "inside_district": true }, "geometry": { "type": "Point", "coordinates": [ 93.5562834, 27.4377034 ] } },
{ "type": "Feature", "properties": { "osm_id": 11041732808, "name": "", "place_type": "hamlet", "inside_district": true }, "geometry": { "type": "Point", "coordinates": [ 93.5466009, 27.4300867 ] } },
{ "type": "Feature", "properties": { "osm_id": 11041884085, "name": "", "place_type": "village", "inside_district": true }, "geometry": { "type": "Point", "coordinates": [ 93.5459206, 27.4099568 ] } },
{ "type": "Feature", "properties": { "osm_id": 11041884110, "name": "", "place_type": "hamlet", "inside_district": true }, "geometry": { "type": "Point", "coordinates": [ 93.5400127, 27.412225 ] } },
{ "type": "Feature", "properties": { "osm_id": 11042216983, "name": "", "place_type": "hamlet", "inside_district": true }, "geometry": { "type": "Point", "coordinates": [ 93.5259154, 27.3456507 ] } },
{ "type": "Feature", "properties": { "osm_id": 11042217013, "name": "", "place_type": "hamlet", "inside_district": true }, "geometry": { "type": "Point", "coordinates": [ 93.5296764, 27.3505392 ] } },
{ "type": "Feature", "properties": { "osm_id": 11042217033, "name": "", "place_type": "hamlet", "inside_district": true }, "geometry": { "type": "Point", "coordinates": [ 93.537517, 27.3579395 ] } },
{ "type": "Feature", "properties": { "osm_id": 11042217055, "name": "", "place_type": "hamlet", "inside_district": true }, "geometry": { "type": "Point", "coordinates": [ 93.5419198, 27.3950379 ] } },
{ "type": "Feature", "properties": { "osm_id": 11042217073, "name": "", "place_type": "hamlet", "inside_district": true }, "geometry": { "type": "Point", "coordinates": [ 93.5428887, 27.398939 ] } },
{ "type": "Feature", "properties": { "osm_id": 11054317411, "name": "", "place_type": "hamlet", "inside_district": true }, "geometry": { "type": "Point", "coordinates": [ 93.4894736, 27.3441717 ] } },
{ "type": "Feature", "properties": { "osm_id": 11059162805, "name": "", "place_type": "hamlet", "inside_district": true }, "geometry": { "type": "Point", "coordinates": [ 93.46854, 27.3486138 ] } },
{ "type": "Feature", "properties": { "osm_id": 11096488322, "name": "", "place_type": "village", "inside_district": true }, "geometry": { "type": "Point", "coordinates": [ 93.4632129, 27.3438869 ] } },
{ "type": "Feature", "properties": { "osm_id": 11101006767, "name": "", "place_type": "hamlet", "inside_district": true }, "geometry": { "type": "Point", "coordinates": [ 93.4715615, 27.3449755 ] } },
{ "type": "Feature", "properties": { "osm_id": 11101006790, "name": "", "place_type": "hamlet", "inside_district": true }, "geometry": { "type": "Point", "coordinates": [ 93.5181093, 27.2938541 ] } },
{ "type": "Feature", "properties": { "osm_id": 11101006803, "name": "", "place_type": "hamlet", "inside_district": true }, "geometry": { "type": "Point", "coordinates": [ 93.5271428, 27.2949768 ] } },
{ "type": "Feature", "properties": { "osm_id": 11104219340, "name": "", "place_type": "village", "inside_district": true }, "geometry": { "type": "Point", "coordinates": [ 93.5122649, 27.2825582 ] } },
{ "type": "Feature", "properties": { "osm_id": 11104219351, "name": "", "place_type": "hamlet", "inside_district": true }, "geometry": { "type": "Point", "coordinates": [ 93.5113713, 27.2738275 ] } },
{ "type": "Feature", "properties": { "osm_id": 13157894248, "name": "Yadung", "place_type": "hamlet", "inside_district": true }, "geometry": { "type": "Point", "coordinates": [ 93.3699742, 27.0483757 ] } },
{ "type": "Feature", "properties": { "osm_id": 13157894250, "name": "Habia", "place_type": "hamlet", "inside_district": true }, "geometry": { "type": "Point", "coordinates": [ 93.3083429, 27.1144111 ] } },
{ "type": "Feature", "properties": { "osm_id": 13157898878, "name": "古辛", "place_type": "hamlet", "inside_district": true }, "geometry": { "type": "Point", "coordinates": [ 93.3205139, 27.2153964 ] } },
{ "type": "Feature", "properties": { "osm_id": 13157898879, "name": "Tabio", "place_type": "village", "inside_district": true }, "geometry": { "type": "Point", "coordinates": [ 93.3838302, 27.2112115 ] } },
{ "type": "Feature", "properties": { "osm_id": 13157898880, "name": "科提普", "place_type": "village", "inside_district": true }, "geometry": { "type": "Point", "coordinates": [ 93.431876, 27.2348772 ] } },
{ "type": "Feature", "properties": { "osm_id": 13157898881, "name": "吴旁", "place_type": "hamlet", "inside_district": true }, "geometry": { "type": "Point", "coordinates": [ 93.5914318, 27.2215424 ] } },
{ "type": "Feature", "properties": { "osm_id": 13157898882, "name": "Bogoli", "place_type": "village", "inside_district": true }, "geometry": { "type": "Point", "coordinates": [ 93.7991049, 27.2113249 ] } },
{ "type": "Feature", "properties": { "osm_id": 13157898883, "name": "Amba", "place_type": "village", "inside_district": true }, "geometry": { "type": "Point", "coordinates": [ 93.7678075, 27.1394772 ] } },
{ "type": "Feature", "properties": { "osm_id": 13157898884, "name": "Doni Colony", "place_type": "village", "inside_district": true }, "geometry": { "type": "Point", "coordinates": [ 93.6068708, 27.0910778 ] } },
{ "type": "Feature", "properties": { "osm_id": 13157898885, "name": "Chimpu", "place_type": "village", "inside_district": true }, "geometry": { "type": "Point", "coordinates": [ 93.5954706, 27.0854415 ] } },
{ "type": "Feature", "properties": { "osm_id": 13157898886, "name": "利依普", "place_type": "village", "inside_district": true }, "geometry": { "type": "Point", "coordinates": [ 93.5288845, 27.0698219 ] } },
{ "type": "Feature", "properties": { "osm_id": 13159088878, "name": "Tagengs", "place_type": "village", "inside_district": true }, "geometry": { "type": "Point", "coordinates": [ 93.5916134, 27.1280821 ] } },
{ "type": "Feature", "properties": { "osm_id": 13290022324, "name": "迪布", "place_type": "hamlet", "inside_district": true }, "geometry": { "type": "Point", "coordinates": [ 93.6678593, 27.1582041 ] } },
{ "type": "Feature", "properties": { "osm_id": 13290022326, "name": "塔明", "place_type": "hamlet", "inside_district": true }, "geometry": { "type": "Point", "coordinates": [ 93.693659, 27.3132208 ] } },
{ "type": "Feature", "properties": { "osm_id": 13972481802, "name": "", "place_type": "hamlet", "inside_district": true }, "geometry": { "type": "Point", "coordinates": [ 93.3577442, 27.0523616 ] } }
]
}
